[{"OBJECT_NAME":"STARLINK-3674","OBJECT_ID":"2022-025V","EPOCH":"2026-03-09T06:32:05.700480","MEAN_MOTION":15.30177312,"ECCENTRICITY":0.00014249,"INCLINATION":53.1603,"RA_OF_ASC_NODE":25.7727,"ARG_OF_PERICENTER":85.3718,"MEAN_ANOMALY":274.7445,"EPHEMERIS_TYPE":0,"CLASSIFICATION_TYPE":"U","NORAD_CAT_ID":51975,"ELEMENT_SET_NO":999,"REV_AT_EPOCH":22096,"BSTAR":7.3980431e-5,"MEAN_MOTION_DOT":1.831e-5,"MEAN_MOTION_DDOT":0},{"OBJECT_NAME":"CZ-4B DEB","OBJECT_ID":"1999-057H","EPOCH":"2026-03-09T17:25:29.363520","MEAN_MOTION":15.25756771,"ECCENTRICITY":0.00339549,"INCLINATION":98.6728,"RA_OF_ASC_NODE":149.1557,"ARG_OF_PERICENTER":175.409,"MEAN_ANOMALY":184.7463,"EPHEMERIS_TYPE":0,"CLASSIFICATION_TYPE":"U","NORAD_CAT_ID":26121,"ELEMENT_SET_NO":999,"REV_AT_EPOCH":41150,"BSTAR":0.00075758105,"MEAN_MOTION_DOT":0.00019602,"MEAN_MOTION_DDOT":0}]
